ORBCOMM FM115           
1 41186U 15081H   25337.31870710  .00001441  00000+0  31306-3 0  9997
2 41186  46.9994 314.9578 0000227 216.4529 143.6343 14.62889572532534
ORBCOMM FM108           
1 41187U 15081J   25337.19092884  .00001503  00000+0  35685-3 0  9995
2 41187  47.0055  28.6401 0002452 348.2000  11.8828 14.58501902531467
ORBCOMM FM117           
1 41188U 15081K   25337.15697239  .00001443  00000+0  34375-3 0  9995
2 41188  47.0022  27.5051 0002602 357.2413   2.8458 14.58543744531500
ORBCOMM FM116           
1 41189U 15081L   25336.86328856  .00000794  00000+0  20525-3 0  9999
2 41189  47.0011 118.6629 0002457 222.4877 137.5819 14.58615392530276
